43570,IRIDIUM 166,2018,100.4,860.0,+,86.4,Active,1,LEO,USA,USA,Commercial/Government,Communications,Falcon,1 43570U 18061B   25011.77534639  .00000017  00000+0 -11186-5 0  9998,2 43570  86.3961 274.6106 0002128  93.4143 266.7296 14.34216388338661,14.34216388,0.0002128,LEO
43571,IRIDIUM 158,2018,100.4,860.0,+,86.4,Active,1,LEO,USA,USA,Commercial/Government,Communications,Falcon,1 43571U 18061C   25011.81340815  .00000130  00000+0  39512-4 0  9992,2 43571  86.3959 274.6043 0001807  87.2700 272.8702 14.34218474338648,14.34218474,0.0001807,LEO
43572,IRIDIUM 165,2018,100.4,860.0,+,86.4,Active,1,LEO,USA,USA,Commercial/Government,Communications,Falcon,1 43572U 18061D   25011.76901848  .00000445  00000+0  15186-3 0  9995,2 43572  86.3961 274.6595 0002269  84.3791 275.7663 14.34218307338659,14.34218307,0.0002269,LEO
43573,IRIDIUM 155,2018,100.4,860.0,+,86.4,Active,1,LEO,USA,USA,Commercial/Government,Communications,Falcon,1 43573U 18061E   25011.24258400  .00000496  00000+0  17009-3 0  9990,2 43573  86.3958 274.7745 0001839  92.1300 268.0106 14.34216421338549,14.34216421,0.0001839,LEO
43574,IRIDIUM 154,2018,100.4,860.0,+,86.4,Active,1,LEO,USA,USA,Commercial/Government,Communications,Falcon,1 43574U 18061F   25011.22354752  .00000473  00000+0  16179-3 0  9998,2 43574  86.3962 274.8901 0002098  84.1801 275.9634 14.34219044338597,14.34219044,0.0002098,LEO
43575,IRIDIUM 163,2018,100.4,860.0,+,86.4,Active,1,LEO,USA,USA,Commercial/Government,Communications,Falcon,1 43575U 18061G   25011.76266697  .00000331  00000+0  11098-3 0  9996,2 43575  86.3961 274.5967 0001963  82.4696 277.6722 14.34219257338648,14.34219257,0.0001963,LEO
43576,IRIDIUM 156,2018,100.4,860.0,+,86.4,Active,1,LEO,USA,USA,Commercial/Government,Communications,Falcon,1 43576U 18061H   25011.80706489  .00000261  00000+0  86022-4 0  9992,2 43576  86.3958 274.5847 0002003  96.0006 264.1418 14.34219471338634,14.34219471,0.0002003,LEO
43577,IRIDIUM 164,2018,100.4,860.0,+,86.4,Active,1,LEO,USA,USA,Commercial/Government,Communications,Falcon,1 43577U 18061J   25011.22989745  .00000509  00000+0  17461-3 0  9992,2 43577  86.3960 274.8581 0002327  83.7474 276.3987 14.34217291338608,14.34217291,0.0002327,LEO
